STARLINK-3071
1 19147C 21082T   21326.12865780 -.00034512  00000-0 -28906-3 0  3268
2 19147  69.9977 292.9031 0003665 286.7145  32.7765 15.69785111    18
